NORAD_CAT_ID,OBJECT_NAME,OBJECT_TYPE,EPOCH,MEAN_MOTION,ECCENTRICITY,INCLINATION,RA_OF_ASC_NODE,ARG_OF_PERICENTER,MEAN_ANOMALY,BSTAR,MEAN_MOTION_DOT,MEAN_MOTION_DDOT,TLE_LINE0,TLE_LINE1,TLE_LINE2,SEMIMAJOR_AXIS,PERIOD,APOGEE,PERIGEE,DECAYED
49754.0,STARLINK-3193,PAYLOAD,2022-07-15 20:28:32,15.08848222,0.0007609,53.2178,2.4543,104.3963,255.7874,0.00014995,2.098e-05,0.0,0 STARLINK-3193,1 49754U 21115AG  22196.85315467  .00002098  00000-0  14995-3 0  9998,2 49754  53.2178   2.4543 0007609 104.3963 255.7874 15.08848222 34468,6917.855,95.437,544.984,534.456,0.0
49754.0,STARLINK-3193,PAYLOAD,2022-07-16 10:47:01,15.08838828,0.0007605,53.2183,359.7778,106.4227,253.7601,0.00018916,2.723e-05,0.0,0 STARLINK-3193,1 49754U 21115AG  22197.44932143  .00002723  00000-0  18916-3 0  9992,2 49754  53.2183 359.7778 0007605 106.4227 253.7601 15.08838828 34551,6917.884,95.438,545.01,534.488,0.0
49754.0,STARLINK-3193,PAYLOAD,2022-07-16 20:19:23,15.08798817,0.0007651,53.2177,357.9939,109.0983,251.0838,-0.00021522,-3.713e-05,0.0,0 STARLINK-3193,1 49754U 21115AG  22197.84679911 -.00003713  00000-0 -21522-3 0  9996,2 49754  53.2177 357.9939 0007651 109.0983 251.0838 15.08798817 34615,6918.005999999999,95.44,545.164,534.578,0.0
49754.0,STARLINK-3193,PAYLOAD,2022-07-17 09:02:26,15.08821546,0.0007455,53.2168,355.6148,109.6749,250.5048,-0.00018673,-3.262e-05,0.0,0 STARLINK-3193,1 49754U 21115AG  22198.37670039 -.00003262  00000-0 -18673-3 0  9999,2 49754  53.2168 355.6148 0007455 109.6749 250.5048 15.08821546 35805,6917.937,95.439,544.9590000000002,534.644,0.0
49754.0,STARLINK-3193,PAYLOAD,2022-07-17 16:59:22,15.08831388,0.0007675,53.2173,354.1286,111.6527,248.5283,-1.4007e-05,-5.14e-06,0.0,0 STARLINK-3193,1 49754U 21115AG  22198.70789757 -.00000514  00000-0 -14007-4 0  9999,2 49754  53.2173 354.1286 0007675 111.6527 248.5283 15.08831388 35857,6917.906999999997,95.438,545.081,534.462,0.0
49754.0,STARLINK-3193,PAYLOAD,2022-07-18 13:39:23,15.08839135,0.0007297,53.2171,350.2622,112.4784,247.6981,0.00027078,4.024e-05,0.0,0 STARLINK-3193,1 49754U 21115AG  22199.56901866  .00004024  00000-0  27078-3 0  9990,2 49754  53.2171 350.2622 0007297 112.4784 247.6981 15.08839135 34874,6917.8830000000025,95.438,544.7959999999998,534.7,0.0
49754.0,STARLINK-3193,PAYLOAD,2022-07-18 18:25:32,15.08844867,0.0007227,53.2173,349.3704,113.0378,247.1377,0.00042964,6.559e-05,0.0,0 STARLINK-3193,1 49754U 21115AG  22199.76773922  .00006559  00000-0  42964-3 0  9998,2 49754  53.2173 349.3704 0007227 113.0378 247.1377 15.08844867 36015,6917.866,95.437,544.73,534.731,0.0
49754.0,STARLINK-3193,PAYLOAD,2022-07-19 10:19:23,15.08853388,0.0007136,53.2173,346.3968,114.974,245.1994,0.00044015,6.728e-05,0.0,0 STARLINK-3193,1 49754U 21115AG  22200.43013400  .00006728  00000-0  44015-3 0  9990,2 49754  53.2173 346.3968 0007136 114.9740 245.1994 15.08853388 35005,6917.839,95.437,544.641,534.768,0.0
49754.0,STARLINK-3193,PAYLOAD,2022-07-19 18:16:19,15.08850483,0.0007069,53.2171,344.91,115.5724,244.6,0.00020682,3.005e-05,0.0,0 STARLINK-3193,1 49754U 21115AG  22200.76133239  .00003005  00000-0  20682-3 0  9998,2 49754  53.2171 344.9100 0007069 115.5724 244.6000 15.08850483 35059,6917.848000000001,95.437,544.604,534.823,0.0
49754.0,STARLINK-3193,PAYLOAD,2022-07-20 02:13:14,15.08857335,0.0007042,53.2172,343.4233,116.4198,243.7518,0.00027281,4.058e-05,0.0,0 STARLINK-3193,1 49754U 21115AG  22201.09252692  .00004058  00000-0  27281-3 0  9991,2 49754  53.2172 343.4233 0007042 116.4198 243.7518 15.08857335 36213,6917.8269999999975,95.436,544.564,534.821,0.0
49754.0,STARLINK-3193,PAYLOAD,2022-07-20 13:20:56,15.08850655,0.0007028,53.2172,341.3418,117.9172,242.2533,0.00014426,2.008e-05,0.0,0 STARLINK-3193,1 49754U 21115AG  22201.55620580  .00002008  00000-0  14426-3 0  9997,2 49754  53.2172 341.3418 0007028 117.9172 242.2533 15.08850655 35170,6917.848000000001,95.437,544.575,534.851,0.0
49754.0,STARLINK-3193,PAYLOAD,2022-07-20 19:42:29,15.08840576,0.0006977999999999,53.2171,340.1522,119.2258,240.9433,3.9683e-06,-2.27e-06,0.0,0 STARLINK-3193,1 49754U 21115AG  22201.82116957 -.00000227  00000-0  39683-5 0  9991,2 49754  53.2171 340.1522 0006978 119.2258 240.9433 15.08840576 36328,6917.879,95.438,544.571,534.9159999999998,0.0
49754.0,STARLINK-3193,PAYLOAD,2022-07-21 10:00:57,15.08841118,0.0006805,53.218,337.4761,122.4114,237.7537,5.4458e-05,5.77e-06,0.0,0 STARLINK-3193,1 49754U 21115AG  22202.41732978  .00000577  00000-0  54458-4 0  9997,2 49754  53.2180 337.4761 0006805 122.4114 237.7537 15.08841118 35307,6917.877,95.437,544.45,535.034,0.0
49754.0,STARLINK-3193,PAYLOAD,2022-07-21 14:47:07,15.08837112,0.0006721,53.2179,336.5843,122.5243,237.6399,1.6481e-05,-2.8e-07,0.0,0 STARLINK-3193,1 49754U 21115AG  22202.61605351 -.00000028  00000-0  16481-4 0  9999,2 49754  53.2179 336.5843 0006721 122.5243 237.6399 15.08837112 35334,6917.889,95.438,544.404,535.105,0.0
49754.0,STARLINK-3193,PAYLOAD,2022-07-22 01:54:49,15.08829994,0.0006637,53.2179,334.5019,123.4496,236.7132,-0.00011048,-2.049e-05,0.0,0 STARLINK-3193,1 49754U 21115AG  22203.07974187 -.00002049  00000-0 -11048-3 0  9995,2 49754  53.2179 334.5019 0006637 123.4496 236.7132 15.08829994 36518,6917.911,95.438,544.367,535.185,0.0
49754.0,STARLINK-3193,PAYLOAD,2022-07-22 09:51:45,15.088304199999998,0.0006448,53.2167,333.0148,124.9229,235.237,-4.4547e-05,-9.99e-06,0.0,0 STARLINK-3193,1 49754U 21115AG  22203.41094069 -.00000999  00000-0 -44547-4 0  9998,2 49754  53.2167 333.0148 0006448 124.9229 235.2370 15.08830420 35458,6917.91,95.438,544.235,535.314,0.0
49754.0,STARLINK-3193,PAYLOAD,2022-07-23 01:45:36,15.08839524,0.0006403,53.2178,330.0415,126.7261,233.432,4.569e-05,4.37e-06,0.0,0 STARLINK-3193,1 49754U 21115AG  22204.07333419  .00000437  00000-0  45690-4 0  9991,2 49754  53.2178 330.0415 0006403 126.7261 233.4320 15.08839524 36664,6917.882,95.438,544.1759999999998,535.317,0.0
49754.0,STARLINK-3193,PAYLOAD,2022-07-23 12:53:17,15.08844677,0.0006294,53.2172,327.9597,128.9054,231.25,0.00013683,1.889e-05,0.0,0 STARLINK-3193,1 49754U 21115AG  22204.53700791  .00001889  00000-0  13683-3 0  9991,2 49754  53.2172 327.9597 0006294 128.9054 231.2500 15.08844677 35622,6917.866,95.437,544.085,535.377,0.0
49754.0,STARLINK-3193,PAYLOAD,2022-07-23 17:39:27,15.0884025,0.0006334,53.2172,327.068,128.9383,231.2174,0.00021006,3.056e-05,0.0,0 STARLINK-3193,1 49754U 21115AG  22204.73572937  .00003056  00000-0  21006-3 0  9998,2 49754  53.2172 327.0680 0006334 128.9383 231.2174 15.08840250 35659,6917.88,95.438,544.126,535.363,0.0
49754.0,STARLINK-3193,PAYLOAD,2022-07-24 12:44:04,15.08841792,0.0006229,53.2172,323.4997,131.4533,228.6995,0.00019666,2.843e-05,0.0,0 STARLINK-3193,1 49754U 21115AG  22205.53061104  .00002843  00000-0  19666-3 0  9998,2 49754  53.2172 323.4997 0006229 131.4533 228.6995 15.08841792 35775,6917.875,95.437,544.049,535.431,0.0
49754.0,STARLINK-3193,PAYLOAD,2022-07-24 14:19:27,15.08843458,0.0006223,53.2172,323.2025,131.2848,228.8681,0.00021261,3.097e-05,0.0,0 STARLINK-3193,1 49754U 21115AG  22205.59685049  .00003097  00000-0  21261-3 0  9990,2 49754  53.2172 323.2025 0006223 131.2848 228.8681 15.08843458 36895,6917.87,95.437,544.04,535.43,0.0
49754.0,STARLINK-3193,PAYLOAD,2022-07-24 17:30:14,15.08845262,0.0006159,53.2174,322.6079,132.2126,227.939,0.00017502,2.498e-05,0.0,0 STARLINK-3193,1 49754U 21115AG  22205.72933039  .00002498  00000-0  17502-3 0  9997,2 49754  53.2174 322.6079 0006159 132.2126 227.9390 15.08845262 35809,6917.864000000001,95.437,543.99,535.469,0.0
49754.0,STARLINK-3193,PAYLOAD,2022-07-25 01:27:10,15.08840477,0.0006054999999999,53.2166,321.1214,133.1691,226.9808,7.6578e-05,9.29e-06,0.0,0 STARLINK-3193,1 49754U 21115AG  22206.06053488  .00000929  00000-0  76578-4 0  9992,2 49754  53.2166 321.1214 0006055 133.1691 226.9808 15.08840477 36961,6917.879,95.438,543.933,535.555,0.0
49754.0,STARLINK-3193,PAYLOAD,2022-07-25 14:10:16,15.08829916,0.0006136,53.2168,318.7424,134.0999,226.0498,-8.6113e-05,-1.661e-05,0.0,0 STARLINK-3193,1 49754U 21115AG  22206.59046636 -.00001661  00000-0 -86113-4 0  9999,2 49754  53.2168 318.7424 0006136 134.0999 226.0498 15.08829916 35936,6917.911,95.438,544.021,535.531,0.0
49754.0,STARLINK-3193,PAYLOAD,2022-07-25 17:21:02,15.08831724,0.0006183,53.219,318.1486,134.89,225.2595,-9.894e-05,-1.865e-05,0.0,0 STARLINK-3193,1 49754U 21115AG  22206.72294620 -.00001865  00000-0 -98940-4 0  9999,2 49754  53.2190 318.1486 0006183 134.8900 225.2595 15.08831724 37060,6917.906,95.438,544.048,535.493,0.0
49754.0,STARLINK-3193,PAYLOAD,2022-07-26 12:25:40,15.08832967,0.0005989,53.2185,314.5804,137.3713,222.7745,-2.9288e-05,-7.56e-06,0.0,0 STARLINK-3193,1 49754U 21115AG  22207.51782697 -.00000756  00000-0 -29288-4 0  9990,2 49754  53.2185 314.5804 0005989 137.3713 222.7745 15.08832967 36070,6917.901999999999,95.438,543.91,535.624,0.0
49754.0,STARLINK-3193,PAYLOAD,2022-07-26 17:11:49,15.08835315,0.0005928,53.2183,313.6882,138.3146,221.8299,-1.0774e-05,-4.62e-06,0.0,0 STARLINK-3193,1 49754U 21115AG  22207.71654556 -.00000462  00000-0 -10774-4 0  9998,2 49754  53.2183 313.6882 0005928 138.3146 221.8299 15.08835315 36106,6917.895,95.438,543.861,535.659,0.0
49754.0,STARLINK-3193,PAYLOAD,2022-07-27 13:51:50,15.08833283,0.0005696,53.2175,309.8221,141.4598,218.6802,0.00021656,3.159e-05,0.0,0 STARLINK-3193,1 49754U 21115AG  22208.57766571  .00003159  00000-0  21656-3 0  9998,2 49754  53.2175 309.8221 0005696 141.4598 218.6802 15.08833283 36239,6917.901,95.438,543.706,535.825,0.0
49754.0,STARLINK-3193,PAYLOAD,2022-07-28 05:45:41,15.0884408,0.0005618999999999,53.2173,306.8483,143.3391,216.7986,0.00022333,3.268e-05,0.0,0 STARLINK-3193,1 49754U 21115AG  22209.24006074  .00003268  00000-0  22333-3 0  9992,2 49754  53.2173 306.8483 0005619 143.3391 216.7986 15.08844080 37444,6917.868,95.437,543.62,535.846,0.0
